[{"OBJECT_NAME":"OBJECT B","OBJECT_ID":"2024-092B","EPOCH":"2026-03-09T22:35:16.756224","MEAN_MOTION":15.26654665,"ECCENTRICITY":0.00097063,"INCLINATION":97.6334,"RA_OF_ASC_NODE":195.5822,"ARG_OF_PERICENTER":166.5945,"MEAN_ANOMALY":193.5553,"EPHEMERIS_TYPE":0,"CLASSIFICATION_TYPE":"U","NORAD_CAT_ID":59774,"ELEMENT_SET_NO":999,"REV_AT_EPOCH":10038,"BSTAR":0.00052893964,"MEAN_MOTION_DOT":0.00013825,"MEAN_MOTION_DDOT":0},{"OBJECT_NAME":"STARLINK-32904","OBJECT_ID":"2025-048R","EPOCH":"2026-03-09T02:02:07.031040","MEAN_MOTION":15.27597993,"ECCENTRICITY":3.384e-5,"INCLINATION":43,"RA_OF_ASC_NODE":88.3889,"ARG_OF_PERICENTER":347.1742,"MEAN_ANOMALY":12.9101,"EPHEMERIS_TYPE":0,"CLASSIFICATION_TYPE":"U","NORAD_CAT_ID":63198,"ELEMENT_SET_NO":999,"REV_AT_EPOCH":5700,"BSTAR":0.0012396323,"MEAN_MOTION_DOT":0.00034026,"MEAN_MOTION_DDOT":0}]
